{
    "links": {
        "self": "http://www.neowsapp.com/rest/v1/neo/3777455?api_key=iIulBulltgU6a56xZRHN4H3l9WmuAYTsLGpBGhQ2"
    },
    "id": "3777455",
    "neo_reference_id": "3777455",
    "name": "(2017 OD)",
    "designation": "2017 OD",
    "nasa_jpl_url": "http://ssd.jpl.nasa.gov/sbdb.cgi?sstr=3777455",
    "absolute_magnitude_h": 22.1,
    "estimated_diameter": {
        "kilometers": {
            "estimated_diameter_min": 0.1010543415,
            "estimated_diameter_max": 0.2259643771
        },
        "meters": {
            "estimated_diameter_min": 101.054341542,
            "estimated_diameter_max": 225.9643771094
        },
        "miles": {
            "estimated_diameter_min": 0.0627922373,
            "estimated_diameter_max": 0.140407711
        },
        "feet": {
            "estimated_diameter_min": 331.5431259047,
            "estimated_diameter_max": 741.3529669956
        }
    },
    "is_potentially_hazardous_asteroid": false,
    "close_approach_data": [
        {
            "close_approach_date": "2017-07-16",
            "close_approach_date_full": "2017-Jul-16 02:59",
            "epoch_date_close_approach": 1500173940000,
            "relative_velocity": {
                "kilometers_per_second": "19.5415812134",
                "kilometers_per_hour": "70349.6923682742",
                "miles_per_hour": "43712.5630162757"
            },
            "miss_distance": {
                "astronomical": "0.0574358093",
                "lunar": "22.3425298177",
                "kilometers": "8592274.733006191",
                "miles": "5338991.9467437958"
            },
            "orbiting_body": "Earth"
        }
    ],
    "orbital_data": {
        "orbit_id": "8",
        "orbit_determination_date": "2017-08-20 06:18:01",
        "first_observation_date": "2017-07-17",
        "last_observation_date": "2017-08-13",
        "data_arc_in_days": 27,
        "observations_used": 156,
        "orbit_uncertainty": "7",
        "minimum_orbit_intersection": ".049462",
        "jupiter_tisserand_invariant": "3.860",
        "epoch_osculation": "2459000.5",
        "eccentricity": ".3928781997363622",
        "semi_major_axis": "1.740994050801197",
        "inclination": "34.97776734836834",
        "ascending_node_longitude": "291.8422259774328",
        "orbital_period": "839.0625884370197",
        "perihelion_distance": "1.056995442370706",
        "perihelion_argument": "14.04980471308382",
        "aphelion_distance": "2.424992659231687",
        "perihelion_time": "2458802.755770077782",
        "mean_anomaly": "84.84220814159443",
        "mean_motion": ".4290502341078001",
        "equinox": "J2000",
        "orbit_class": {
            "orbit_class_type": "AMO",
            "orbit_class_description": "Near-Earth asteroid orbits similar to that of 1221 Amor",
            "orbit_class_range": "1.017 AU < q (perihelion) < 1.3 AU"
        }
    },
    "is_sentry_object": false
}